[Satellite]
VERSION=1.1
NAME=GORIZONT 24 [-]
NICKNAME=GORIZONT 24 [-]
TLE1=1 21759U 91074A   15052.79590470 -.00000181  00000-0  00000+0 0  9999
TLE2=2 21759  15.0086  19.8086 0021312 155.7201  24.8873  0.98443307 84347
